SatCatId,ObjectName,LaunchYear,OrbitalPeriod,LaunchMass,StatusCode,Inclination,Status,UcsData,OrbitClassEstimated,LaunchSiteCountry,Owner,UseType,Purpose,LaunchVehicleClass,TLE1,TLE2,MeanMotion,Eccentricity,OrbitClass
54059,STARLINK-5173,2022,95.43,260.0,+,53.22,Active,1,LEO,USA,USA,Commercial,Communications,Falcon,1 54059U 22136J   23310.46015059  .00009552  00000+0  61668-3 0  9996,2 54059  53.2163 218.9542 0001413  80.2210 279.8942 15.08886391 57886,15.08886391,0.0001413,LEO
54060,STARLINK-5169,2022,95.33,260.0,+,53.22,Active,1,LEO,USA,USA,Commercial,Communications,Falcon,1 54060U 22136K   23310.09247160  .00017614  00000+0  10713-2 0  9999,2 54060  53.2160 190.2636 0001691 121.1255 238.9904 15.10532547 58253,15.10532547,0.0001691,LEO
54061,STARLINK-5209,2022,95.44,260.0,+,53.22,Active,1,LEO,USA,USA,Commercial,Communications,Falcon,1 54061U 22136L   23310.35109683  .00014925  00000+0  95320-3 0  9996,2 54061  53.2160 183.9935 0001686  79.9998 280.1184 15.08864193 58366,15.08864193,0.0001686,LEO
54062,STARLINK-5170,2022,95.44,260.0,+,53.22,Active,1,LEO,USA,USA,Commercial,Communications,Falcon,1 54062U 22136M   23310.45281594  .00000722  00000+0  63435-4 0  9993,2 54062  53.2161 218.9095 0001486  92.8932 267.2230 15.08840224 57887,15.08840224,0.0001486,LEO
54063,STARLINK-5225,2022,95.44,260.0,+,53.22,Active,1,LEO,USA,USA,Commercial,Communications,Falcon,1 54063U 22136N   23310.44911197  .00005836  00000+0  38420-3 0  9998,2 54063  53.2171 218.8857 0001758  88.8347 271.2846 15.08863503 57884,15.08863503,0.0001758,LEO
54064,STARLINK-5172,2022,95.44,260.0,+,53.22,Active,1,LEO,USA,USA,Commercial,Communications,Falcon,1 54064U 22136P   23310.33369071  .00009721  00000+0  62757-3 0  9992,2 54064  53.2158 174.6490 0002352  81.9547 278.1712 15.08866569 58490,15.08866569,0.0002352,LEO
54065,STARLINK-5187,2022,95.44,260.0,+,53.22,Active,1,LEO,USA,USA,Commercial,Communications,Falcon,1 54065U 22136Q   23310.44175022 -.00008117  00000+0 -49240-3 0  9998,2 54065  53.2168 218.8418 0000935  85.1793 274.9306 15.08845799 57884,15.08845799,9.35e-05,LEO
54066,STARLINK-5151,2022,95.43,260.0,+,53.22,Active,1,LEO,USA,USA,Commercial,Communications,Falcon,1 54066U 22136R   23310.44541460  .00014647  00000+0  93506-3 0  9999,2 54066  53.2176 218.8617 0001424  84.7671 275.3484 15.08893976 57881,15.08893976,0.0001424,LEO
54067,STARLINK-5174,2022,95.43,260.0,+,53.22,Active,1,LEO,USA,USA,Commercial,Communications,Falcon,1 54067U 22136S   23310.16940612  .00068183  00000+0  42485-2 0  9994,2 54067  53.2178 219.9846 0001374  98.2895 261.8253 15.08948267 57846,15.08948267,0.0001374,LEO
54068,STARLINK-5222,2022,95.43,260.0,+,53.22,Active,1,LEO,USA,USA,Commercial,Communications,Falcon,1 54068U 22136T   23310.17309135  .00058536  00000+0  36553-2 0  9995,2 54068  53.2164 220.0059 0001203  96.1798 263.9331 15.08943788 57844,15.08943788,0.0001203,LEO
54069,STARLINK-5223,2022,95.44,260.0,+,53.22,Active,1,LEO,USA,USA,Commercial,Communications,Falcon,1 54069U 22136U   23310.48955627  .00005565  00000+0  36717-3 0  9990,2 54069  53.2176 218.4289 0001739  91.9444 268.1747 15.08869377 57893,15.08869377,0.0001739,LEO
54070,STARLINK-5181,2022,95.43,260.0,+,53.22,Active,1,LEO,USA,USA,Commercial,Communications,Falcon,1 54070U 22136V   23310.02955344  .00012625  00000+0  80876-3 0  9998,2 54070  53.2163 220.5339 0001198  99.8853 260.2275 15.08892641 57823,15.08892641,0.0001198,LEO
54071,STARLINK-5168,2022,95.44,260.0,+,53.22,Active,1,LEO,USA,USA,Commercial,Communications,Falcon,1 54071U 22136W   23310.44270187  .00001987  00000+0  14282-3 0  9997,2 54071  53.2173 218.8395 0003671  99.5553 260.5854 15.08868398 57883,15.08868398,0.0003671,LEO
54072,STARLINK-5144,2022,95.43,260.0,+,53.22,Active,1,LEO,USA,USA,Commercial,Communications,Falcon,1 54072U 22136X   23310.03323877  .00013224  00000+0  84614-3 0  9991,2 54072  53.2164 220.5587 0001329 100.8181 259.2961 15.08893581 57828,15.08893581,0.0001329,LEO
54073,STARLINK-5146,2022,95.43,260.0,+,53.22,Active,1,LEO,USA,USA,Commercial,Communications,Falcon,1 54073U 22136Y   23310.15697147  .00029554  00000+0  18634-2 0  9990,2 54073  53.2163 214.9224 0001616 123.4354 236.6793 15.08915349 57914,15.08915349,0.0001616,LEO
54074,STARLINK-5192,2022,95.43,260.0,+,53.22,Active,1,LEO,USA,USA,Commercial,Communications,Falcon,1 54074U 22136Z   23310.02219929  .00059901  00000+0  37422-2 0  9990,2 54074  53.2161 220.4857 0001273  97.4571 262.6566 15.08916408 57821,15.08916408,0.0001273,LEO
54075,STARLINK-5212,2022,95.43,260.0,+,53.22,Active,1,LEO,USA,USA,Commercial,Communications,Falcon,1 54075U 22136AA  23310.15328189  .00016407  00000+0  10448-2 0  9997,2 54075  53.2169 214.8973 0001522 103.8163 256.2998 15.08902371 57914,15.08902371,0.0001522,LEO
54076,STARLINK-5201,2022,95.44,260.0,+,53.22,Active,1,LEO,USA,USA,Commercial,Communications,Falcon,1 54076U 22136AB  23310.48218552  .00007111  00000+0  46400-3 0  9996,2 54076  53.2175 218.3833 0001796 103.7575 256.3617 15.08874487 57897,15.08874487,0.0001796,LEO
54077,STARLINK-5171,2022,95.44,260.0,+,53.22,Active,1,LEO,USA,USA,Commercial,Communications,Falcon,1 54077U 22136AC  23310.42147997  .00005870  00000+0  38629-3 0  9999,2 54077  53.2161 198.7591 0001418  98.6816 261.4337 15.08870640 58160,15.0887064,0.0001418,LEO
54078,STARLINK-5138,2022,95.43,260.0,+,53.22,Active,1,LEO,USA,USA,Commercial,Communications,Falcon,1 54078U 22136AD  23310.11607029  .00039529  00000+0  24825-2 0  9993,2 54078  53.2167 200.3985 0001553  95.2735 264.8434 15.08919052 58118,15.08919052,0.0001553,LEO
54079,STARLINK-5175,2022,95.43,260.0,+,53.22,Active,1,LEO,USA,USA,Commercial,Communications,Falcon,1 54079U 22136AE  23310.14462002  .00020106  00000+0  12756-2 0  9998,2 54079  53.2177 210.5410 0002113 115.6349 244.4862 15.08902211 57978,15.08902211,0.0002113,LEO
54080,STARLINK-5160,2022,95.43,260.0,+,53.22,Active,1,LEO,USA,USA,Commercial,Communications,Falcon,1 54080U 22136AF  23310.46983653  .00015511  00000+0  98904-3 0  9999,2 54080  53.2161 214.0253 0002033  97.2585 262.8638 15.08893300 57956,15.088933,0.0002033,LEO
54081,STARLINK-5165,2022,95.43,260.0,+,53.22,Active,1,LEO,USA,USA,Commercial,Communications,Falcon,1 54081U 22136AG  23310.00941675  .00014065  00000+0  89875-3 0  9998,2 54081  53.2164 211.1202 0001618 102.8409 257.2764 15.08891573 57956,15.08891573,0.0001618,LEO
54082,STARLINK-5210,2022,95.43,260.0,+,53.22,Active,1,LEO,USA,USA,Commercial,Communications,Falcon,1 54082U 22136AH  23310.14093984  .00037171  00000+0  23365-2 0  9999,2 54082  53.2153 210.5221 0001511  86.9397 273.1768 15.08915556 57970,15.08915556,0.0001511,LEO
54083,STARLINK-5178,2022,95.44,260.0,+,53.22,Active,1,LEO,USA,USA,Commercial,Communications,Falcon,1 54083U 22136AJ  23310.46108588  .00008295  00000+0  53813-3 0  9999,2 54083  53.2169 208.9688 0001727  84.9349 275.1840 15.08874109 58028,15.08874109,0.0001727,LEO
54084,STARLINK-5183,2022,95.43,260.0,+,53.22,Active,1,LEO,USA,USA,Commercial,Communications,Falcon,1 54084U 22136AK  23310.13723926  .00011564  00000+0  74225-3 0  9996,2 54084  53.2166 210.4975 0001473 103.9257 256.1899 15.08901374 57972,15.08901374,0.0001473,LEO
54085,STARLINK-5166,2022,95.43,260.0,+,53.22,Active,1,LEO,USA,USA,Commercial,Communications,Falcon,1 54085U 22136AL  23310.45739793  .00018696  00000+0  11878-2 0  9998,2 54085  53.2166 208.9453 0001887  91.6329 268.4880 15.08896955 58029,15.08896955,0.0001887,LEO
54086,STARLINK-5211,2022,95.44,260.0,+,53.22,Active,1,LEO,USA,USA,Commercial,Communications,Falcon,1 54086U 22136AM  23310.39439224  .00006652  00000+0  43536-3 0  9994,2 54086  53.2158 194.3040 0001895  72.8233 287.2966 15.08866452 58220,15.08866452,0.0001895,LEO
54087,STARLINK-5184,2022,95.44,260.0,+,53.22,Active,1,LEO,USA,USA,Commercial,Communications,Falcon,1 54087U 22136AN  23310.44730525  .00002158  00000+0  15354-3 0  9993,2 54087  53.2163 208.8856 0001337  97.1259 262.9885 15.08860069 58028,15.08860069,0.0001337,LEO
54088,STARLINK-5153,2022,95.43,260.0,+,53.22,Active,1,LEO,USA,USA,Commercial,Communications,Falcon,1 54088U 22136AP  23310.13357336  .00058244  00000+0  36391-2 0  9995,2 54088  53.2172 210.4745 0001844  95.8059 264.3143 15.08925487 57973,15.08925487,0.0001844,LEO
54089,STARLINK-5143,2022,95.43,260.0,+,53.22,Active,1,LEO,USA,USA,Commercial,Communications,Falcon,1 54089U 22136AQ  23310.11146330  .00087812  00000+0  54526-2 0  9997,2 54089  53.2152 210.3408 0001448  84.4233 275.6925 15.08939441 57973,15.08939441,0.0001448,LEO
54090,STARLINK-5177,2022,95.44,260.0,+,53.22,Active,1,LEO,USA,USA,Commercial,Communications,Falcon,1 54090U 22136AR  23310.44634908  .00002137  00000+0  15226-3 0  9990,2 54090  53.2179 208.8752 0001535  96.0593 264.0575 15.08858860 58028,15.0885886,0.0001535,LEO
54091,STARLINK-5221,2022,95.43,260.0,+,53.22,Active,1,LEO,USA,USA,Commercial,Communications,Falcon,1 54091U 22136AS  23310.41686546  .00013557  00000+0  86715-3 0  9992,2 54091  53.2176 208.6981 0001541  79.9865 280.1302 15.08887234 58021,15.08887234,0.0001541,LEO
54092,STARLINK-5190,2022,95.38,260.0,+,53.21,Active,1,LEO,USA,USA,Commercial,Communications,Falcon,1 54092U 22136AT  23310.44709528  .00073029  00000+0  44522-2 0  9991,2 54092  53.2148 208.8809 0001743 130.5478 229.5666 15.09709667 58024,15.09709667,0.0001743,LEO
54093,STARLINK-5213,2022,95.44,260.0,+,53.22,Active,1,LEO,USA,USA,Commercial,Communications,Falcon,1 54093U 22136AU  23310.43161722  .00001135  00000+0  89397-4 0  9999,2 54093  53.2172 208.7857 0002218  90.2551 269.8696 15.08850311 58028,15.08850311,0.0002218,LEO
54094,STARLINK-5219,2022,95.43,260.0,+,53.22,Active,1,LEO,USA,USA,Commercial,Communications,Falcon,1 54094U 22136AV  23310.10777609  .00019168  00000+0  12173-2 0  9992,2 54094  53.2154 210.3181 0001585  96.5983 263.5189 15.08896502 57975,15.08896502,0.0001585,LEO
